ONEWEB-0176             
1 48210U 21031A   25033.46574049 -.00000159  00000+0 -46453-3 0  9995
2 48210  87.9005  29.0561 0001873  88.2840 271.8504 13.14503241182662
ONEWEB-0184             
1 48211U 21031B   25033.97159959  .00000267  00000+0  68592-3 0  9997
2 48211  87.8994  28.9320 0002566 105.0044 255.1370 13.14503507182700
ONEWEB-0179             
1 48212U 21031C   25034.01759630 -.00000130  00000+0 -38497-3 0  9998
2 48212  87.8997  28.9342 0001880  83.9453 276.1891 13.14503173182759
ONEWEB-0180             
1 48213U 21031D   25034.05090375  .00000233  00000+0  59269-3 0  9999
2 48213  87.8997  28.9192 0002075  88.0613 272.0755 13.14502779182647
ONEWEB-0218             
1 48214U 21031E   25033.92087079 -.00000076  00000+0 -23838-3 0  9992
2 48214  87.8999  28.9461 0002776  97.4544 262.6901 13.14502257182788
ONEWEB-0209             
1 48215U 21031F   25033.45305778  .00000022  00000+0  23581-4 0  9995
2 48215  87.9008  29.0780 0002156  80.4115 279.7259 13.14502582182725
ONEWEB-0198             
1 48216U 21031G   25034.04614353  .00000248  00000+0  63569-3 0  9993
2 48216  87.8998  28.9641 0002237  89.8222 270.3164 13.14503728182892
ONEWEB-0189             
1 48217U 21031H   25033.90657696  .00000186  00000+0  46800-3 0  9995
2 48217  87.8999  28.9660 0002386  86.6376 273.5027 13.14505053182633
